{
    "links": {
        "self": "http://www.neowsapp.com/rest/v1/neo/3545975?api_key=iIulBulltgU6a56xZRHN4H3l9WmuAYTsLGpBGhQ2"
    },
    "id": "3545975",
    "neo_reference_id": "3545975",
    "name": "(2010 RO80)",
    "designation": "2010 RO80",
    "nasa_jpl_url": "http://ssd.jpl.nasa.gov/sbdb.cgi?sstr=3545975",
    "absolute_magnitude_h": 24.6,
    "estimated_diameter": {
        "kilometers": {
            "estimated_diameter_min": 0.0319561887,
            "estimated_diameter_max": 0.0714562102
        },
        "meters": {
            "estimated_diameter_min": 31.9561886721,
            "estimated_diameter_max": 71.4562101727
        },
        "miles": {
            "estimated_diameter_min": 0.0198566489,
            "estimated_diameter_max": 0.0444008168
        },
        "feet": {
            "estimated_diameter_min": 104.8431420431,
            "estimated_diameter_max": 234.436392583
        }
    },
    "is_potentially_hazardous_asteroid": false,
    "close_approach_data": [
        {
            "close_approach_date": "2010-09-13",
            "close_approach_date_full": "2010-Sep-13 22:39",
            "epoch_date_close_approach": 1284417540000,
            "relative_velocity": {
                "kilometers_per_second": "13.148626446",
                "kilometers_per_hour": "47335.0552054862",
                "miles_per_hour": "29412.1624969867"
            },
            "miss_distance": {
                "astronomical": "0.0516462846",
                "lunar": "20.0904047094",
                "kilometers": "7726174.169573802",
                "miles": "4800822.0118983876"
            },
            "orbiting_body": "Earth"
        },
        {
            "close_approach_date": "2011-03-01",
            "close_approach_date_full": "2011-Mar-01 10:36",
            "epoch_date_close_approach": 1298975760000,
            "relative_velocity": {
                "kilometers_per_second": "12.3834064238",
                "kilometers_per_hour": "44580.2631256307",
                "miles_per_hour": "27700.4418293676"
            },
            "miss_distance": {
                "astronomical": "0.2231701392",
                "lunar": "86.8131841488",
                "kilometers": "33385777.471923504",
                "miles": "20744960.1644681952"
            },
            "orbiting_body": "Earth"
        }
    ],
    "orbital_data": {
        "orbit_id": "7",
        "orbit_determination_date": "2017-04-06 08:56:44",
        "first_observation_date": "2010-09-11",
        "last_observation_date": "2010-09-12",
        "data_arc_in_days": 1,
        "observations_used": 37,
        "orbit_uncertainty": "8",
        "minimum_orbit_intersection": ".0513586",
        "jupiter_tisserand_invariant": "5.241",
        "epoch_osculation": "2455451.5",
        "eccentricity": ".2027801825532075",
        "semi_major_axis": "1.186961821564379",
        "inclination": "23.56772219824443",
        "ascending_node_longitude": "348.5889515034585",
        "orbital_period": "472.3387240936163",
        "perihelion_distance": ".9462694867038663",
        "perihelion_argument": "69.37568985917285",
        "aphelion_distance": "1.427654156424891",
        "perihelion_time": "2455514.502945067393",
        "mean_anomaly": "311.9813661948112",
        "mean_motion": ".762164907590022",
        "equinox": "J2000",
        "orbit_class": {
            "orbit_class_type": "APO",
            "orbit_class_description": "Near-Earth asteroid orbits which cross the Earth’s orbit similar to that of 1862 Apollo",
            "orbit_class_range": "a (semi-major axis) > 1.0 AU; q (perihelion) < 1.017 AU"
        }
    },
    "is_sentry_object": false
}